0 DELTA 2 DEB
1 25138U 98002E   13282.18378907  .00000530  00000-0  32369-3 0  3096
2 25138 026.8805 280.1463 0336333 229.7567 216.3392 13.67489782786612
0 DELTA 2 DEB
1 25138U 98002E   13287.38402958  .00000694  00000-0  45573-3 0  3112
2 25138 026.8795 252.3699 0336237 276.1491 256.9292 13.67494176787328
0 DELTA 2 DEB
1 25138U 98002E   13290.14528544  .00000823  00000-0  55968-3 0  3124
2 25138 026.8787 237.6206 0336197 300.7899 170.5256 13.67498590787707
0 DELTA 2 DEB
1 25138U 98002E   13292.19943907  .00000929  00000-0  64500-3 0  3135
2 25138 026.8779 226.6480 0336195 319.1232 203.1008 13.67501485787989
0 DELTA 2 DEB
1 25138U 98002E   13294.31409007  .00000963  00000-0  67317-3 0  3147
2 25138 026.8771 215.3518 0336246 337.9867 173.5368 13.67505888788270
